FENGYUN 1C DEB          
1 30356U 99025ABT 17345.71489993  .00000399  00000-0  26009-3 0  9993
2 30356  98.8830  27.8570 0055989 271.8557 208.9494 14.07388477558592
